*******************************************************************************
 Revised: Sep 08, 2007            Rosalind / (Uranus)                       713

 SATELLITE PHYSICAL PROPERTIES:
  Radius (km)           = 29 +- 4           Density (g cm^-3)   =
  Mass (10^20 kg )      =                   Geometric Albedo    =   0.07 
                                            V(1,0)              =  +9.8

 SATELLITE ORBITAL DATA:
  Semi-major axis, a (km) =  69.927 (10^3)  Orbital period      =  0.558459 d
  Eccentricity, e         =   0.000         Rotational period   = 
  Inclination, i  (deg)   =   0.3
*******************************************************************************
 
 
*******************************************************************************
Ephemeris / WWW_USER Sun Nov 12 08:44:04 2017 Pasadena, USA      / Horizons    
*******************************************************************************
Target body name: Rosalind (713)                  {source: ura086x}
Center body name: Solar System Barycenter (0)     {source: DE431mx}
Center-site name: BODY CENTER
*******************************************************************************
Start time      : A.D. 2017-Jul-10 00:00:00.0000 TDB
Stop  time      : A.D. 2020-Aug-13 00:00:00.0000 TDB
Step-size       : 1440 minutes
*******************************************************************************
Center geodetic : 0.00000000,0.00000000,0.0000000 {E-lon(deg),Lat(deg),Alt(km)}
Center cylindric: 0.00000000,0.00000000,0.0000000 {E-lon(deg),Dxy(km),Dz(km)}
Center radii    : (undefined)                                                  
Output units    : KM-S                                                         
Output type     : GEOMETRIC cartesian states
Output format   : 3 (position, velocity, LT, range, range-rate)
Reference frame : ICRF/J2000.0                                                 
Coordinate systm: Ecliptic and Mean Equinox of Reference Epoch                 
*******************************************************************************
            JDTDB,            Calendar Date (TDB),                      X,                      Y,                      Z,                     VX,                     VY,                     VZ,                     LT,                     RG,                     RR,
**************************************************************************************************************************************************************************************************************************************************************************
$$SOE
2458592.500000000, A.D. 2019-Apr-19 00:00:00.0000,  2.511681332044665E+09,  1.584567881947046E+09, -2.670691512762213E+07, -1.056662418293286E+01,  6.154067233989776E+00, -5.851195725516417E+00,  9.906410968706803E+03,  2.969867294266773E+09, -5.600313544363643E+00,
2458593.500000000, A.D. 2019-Apr-20 00:00:00.0000,  2.511381811133652E+09,  1.585045282462998E+09, -2.661795503949690E+07,  2.555697147129088E-02,  3.512214491420779E+00, -8.018061747532032E+00,  9.906413169387979E+03,  2.969867954014392E+09,  1.967975284263005E+00,
2458594.500000000, A.D. 2019-Apr-21 00:00:00.0000,  2.510989443927942E+09,  1.585536847709730E+09, -2.657494245233357E+07,  5.072252090448748E+00,  3.753516126588009E+00,  1.897735745207825E+00,  9.906180473591472E+03,  2.969798193569591E+09,  6.275603980557431E+00,
2458595.500000000, A.D. 2019-Apr-22 00:00:00.0000,  2.510614752219457E+09,  1.586010517292254E+09, -2.663338135965788E+07, -2.971421996498986E+00,  6.516909771036867E+00,  9.083176680986126E+00,  9.905969211795533E+03,  2.969734858876505E+09,  8.869060553520133E-01,
2458596.500000000, A.D. 2019-Apr-23 00:00:00.0000,  2.510341753510445E+09,  1.586460878783242E+09, -2.669713747150815E+07, -1.208830496093325E+01,  7.670692180443834E+00,  2.789386067654998E+00,  9.906003719298415E+03,  2.969745203965614E+09, -6.145642465917136E+00,
2458597.500000000, A.D. 2019-Apr-24 00:00:00.0000,  2.510102293295881E+09,  1.586917278716802E+09, -2.666207673973298E+07, -8.642986065841493E+00,  5.488215884363412E+00, -7.571322644633844E+00,  9.906140896928400E+03,  2.969786328784490E+09, -4.304541111019416E+00,
2458598.500000000, A.D. 2019-Apr-25 00:00:00.0000,  2.509777944008247E+09,  1.587399928495223E+09, -2.657188125344110E+07,  2.202909275412305E+00,  3.233206470153758E+00, -6.511491483964518E+00,  9.906084224672675E+03,  2.969769338869645E+09,  3.648171347284427E+00,
2458599.500000000, A.D. 2019-Apr-26 00:00:00.0000,  2.509377040564451E+09,  1.587889720447346E+09, -2.655257089973223E+07,  4.243145322108316E+00,  4.272641951860190E+00,  4.380068800623111E+00,  9.905827013863309E+03,  2.969692229008882E+09,  5.830851234032677E+00,
2458600.500000000, A.D. 2019-Apr-27 00:00:00.0000,  2.509022163563454E+09,  1.588356786104898E+09, -2.662427419883788E+07, -5.578950082936198E+00,  7.053551809731239E+00,  8.830210452791022E+00,  9.905662130597810E+03,  2.969642798249434E+09, -1.020072336809750E+00,
2458601.500000000, A.D. 2019-Apr-28 00:00:00.0000,  2.508766987855497E+09,  1.588805135831270E+09, -2.667103779944670E+07, -1.258238696994030E+01,  7.416784200517657E+00,  1.774679517488882E-01,  9.905744438425088E+03,  2.969667473515286E+09, -6.663098027100419E+00,
2458602.500000000, A.D. 2019-Apr-29 00:00:00.0000,  2.508515952028614E+09,  1.589266679942753E+09, -2.661415838071454E+07, -6.295267277011554E+00,  4.818970147914886E+00, -8.635227551316486E+00,  9.905859160562861E+03,  2.969701866346956E+09, -2.661321149710211E+00,
2458603.500000000, A.D. 2019-Apr-30 00:00:00.0000,  2.508167202984942E+09,  1.589753496160511E+09, -2.652991497888112E+07,  3.874407419564049E+00,  3.143474943258963E+00, -4.439794944415265E+00,  9.905743219610444E+03,  2.969667108123848E+09,  4.994768350874491E+00,
2458604.500000000, A.D. 2019-May-01 00:00:00.0000,  2.507764788886786E+09,  1.590239815425120E+09, -2.653539161932623E+07,  2.732734197062938E+00,  4.891436486569639E+00,  6.493790656736624E+00,  9.905478301037709E+03,  2.969587687533759E+09,  4.869125917674265E+00,
2458605.500000000, A.D. 2019-May-02 00:00:00.0000,  2.507432851091765E+09,  1.590700511592663E+09, -2.661363585015905E+07, -8.024083197482241E+00,  7.451000873800414E+00,  7.824950355080682E+00,  9.905368709960525E+03,  2.969554832955355E+09, -2.854228921002667E+00,
2458606.500000000, A.D. 2019-May-03 00:00:00.0000,  2.507190068999728E+09,  1.591148671452808E+09, -2.663886304935777E+07, -1.231217005359489E+01,  6.993029391150650E+00, -2.443395057710259E+00,  9.905486574925866E+03,  2.969590167983027E+09, -6.626137171007699E+00,
2458607.500000000, A.D. 2019-May-04 00:00:00.0000,  2.506921660327889E+09,  1.591616033868409E+09, -2.656456430653572E+07, -3.724369754631588E+00,  4.203033218116159E+00, -8.952625877572373E+00,  9.905563923078074E+03,  2.969613356375699E+09, -8.113061375855573E-01,
2458608.500000000, A.D. 2019-May-05 00:00:00.0000,  2.506551066581129E+09,  1.592105524272452E+09, -2.649303031521022E+07,  4.896757934179725E+00,  3.250018515933999E+00, -1.981618210157484E+00,  9.905393548186927E+03,  2.969562279268300E+09,  5.893409089080011E+00,
2458609.500000000, A.D. 2019-May-06 00:00:00.0000,  2.506154272959962E+09,  1.592586925969992E+09, -2.652235815273404E+07,  6.696956239592962E-01,  5.556373199862749E+00,  8.055963430862219E+00,  9.905138371008956E+03,  2.969485779074891E+09,  3.473229199741816E+00,
2458610.500000000, A.D. 2019-May-07 00:00:00.0000,  2.505846336041222E+09,  1.593042006170837E+09, -2.659994799081218E+07, -1.009786444927165E+01,  7.674976468208092E+00,  6.152971952551312E+00,  9.905088079566043E+03,  2.969470702079604E+09, -4.458978311008073E+00,
2458611.500000000, A.D. 2019-May-08 00:00:00.0000,  2.505609324754294E+09,  1.593491801328851E+09, -2.660098111554527E+07, -1.130274672661009E+01,  6.435919471822591E+00, -4.848058647941247E+00,  9.905226004920441E+03,  2.969512051060619E+09, -6.039955136138033E+00,
2458612.500000000, A.D. 2019-May-09 00:00:00.0000,  2.505319126416718E+09,  1.593965151042912E+09, -2.651512271679974E+07, -1.151789355356660E+00,  3.692999996757931E+00, -8.495979011666845E+00,  9.905254120005675E+03,  2.969520479751128E+09,  1.086433093877700E+00,
2458613.500000000, A.D. 2019-May-10 00:00:00.0000,  2.504931053255547E+09,  1.594455582292363E+09, -2.646190746707165E+07,  5.181720518281843E+00,  3.543408950123866E+00,  6.530780813344144E-01,  9.905038747811903E+03,  2.969455912791772E+09,  6.267942569704502E+00,
2458614.500000000, A.D. 2019-May-11 00:00:00.0000,  2.504546511077820E+09,  1.594931018513922E+09, -2.651206540232515E+07, -1.769166953162495E+00,  6.210039033415972E+00,  8.932377923668209E+00,  9.904809954415896E+03,  2.969387322257209E+09,  1.763598548952064E+00,
2458615.500000000, A.D. 2019-May-12 00:00:00.0000,  2.504261562650679E+09,  1.595381686919302E+09, -2.658185210613763E+07, -1.162213000607087E+01,  7.705978386517888E+00,  3.957955451176688E+00,  9.904817944981007E+03,  2.969389717768364E+09, -5.696822595534843E+00,
2458616.500000000, A.D. 2019-May-13 00:00:00.0000,  2.504023181321883E+09,  1.595834768560365E+09, -2.655812844039142E+07, -9.641485449449521E+00,  5.793033849436565E+00, -6.830488036955686E+00,  9.904958777028742E+03,  2.969431938154120E+09, -4.955955739458148E+00,
2458617.500000000, A.D. 2019-May-14 00:00:00.0000,  2.503708600545187E+09,  1.596313732388932E+09, -2.646759005220890E+07,  1.201263214071471E+00,  3.332158862913973E+00, -7.304897374754809E+00,  9.904930012336319E+03,  2.969423314716276E+09,  2.869286766498941E+00,
2458618.500000000, A.D. 2019-May-15 00:00:00.0000,  2.503308834805634E+09,  1.596803270735509E+09, -2.643675627614963E+07,  4.703398985828798E+00,  3.998280517743763E+00,  3.238294258645530E+00,  9.904682813816034E+03,  2.969349206464265E+09,  6.086491143406588E+00,
